[{"OBJECT_NAME":"SAUDISAT 5A","OBJECT_ID":"2018-102A","EPOCH":"2026-03-09T23:40:00.596928","MEAN_MOTION":15.26941021,"ECCENTRICITY":0.00113651,"INCLINATION":97.3185,"RA_OF_ASC_NODE":132.4981,"ARG_OF_PERICENTER":121.7113,"MEAN_ANOMALY":238.5235,"EPHEMERIS_TYPE":0,"CLASSIFICATION_TYPE":"U","NORAD_CAT_ID":43831,"ELEMENT_SET_NO":999,"REV_AT_EPOCH":40053,"BSTAR":0.00030305233,"MEAN_MOTION_DOT":7.96e-5,"MEAN_MOTION_DDOT":0},{"OBJECT_NAME":"STARLINK-36486","OBJECT_ID":"2026-003B","EPOCH":"2026-03-09T11:21:54.966240","MEAN_MOTION":15.27566267,"ECCENTRICITY":0.00013175,"INCLINATION":43.0011,"RA_OF_ASC_NODE":228.0389,"ARG_OF_PERICENTER":268.1166,"MEAN_ANOMALY":91.9535,"EPHEMERIS_TYPE":0,"CLASSIFICATION_TYPE":"U","NORAD_CAT_ID":67335,"ELEMENT_SET_NO":999,"REV_AT_EPOCH":879,"BSTAR":0.00079221935,"MEAN_MOTION_DOT":0.00021593,"MEAN_MOTION_DDOT":0}]
